STARLINK-35695          
1 66558U 25268B   25332.58335648 -.01259208  00000+0 -46274-2 0  9993
2 66558  42.9970 205.9954 0001903 266.9146 180.4786 15.89714509  2391
STARLINK-35419          
1 66559U 25268C   25332.58335648 -.01279722  00000+0 -46963-2 0  9992
2 66559  42.9969 205.9906 0001809 266.8810 182.3893 15.89782974  2390
STARLINK-35411          
1 66560U 25268D   25332.58335648 -.01287382  00000+0 -47140-2 0  9993
2 66560  42.9971 205.9863 0001847 263.9228 187.0697 15.89840371  2390
STARLINK-35305          
1 66561U 25268E   25332.58335648 -.01328854  00000+0 -48546-2 0  9995
2 66561  42.9970 205.9772 0001768 267.9360 186.6390 15.89968324  2341
STARLINK-35579          
1 66562U 25268F   25332.58335648 -.01308963  00000+0 -47873-2 0  9997
2 66562  42.9971 205.9814 0001797 266.0303 186.8488 15.89906534  2399
STARLINK-35437          
1 66563U 25268G   25332.58335648 -.01339093  00000+0 -48847-2 0  9998
2 66563  42.9969 205.9723 0001683 268.1701 188.2987 15.90018784  2398
STARLINK-35358          
1 66564U 25268H   25332.58335648 -.01276295  00000+0 -46366-2 0  9997
2 66564  42.9968 205.9679 0002694 267.7155 190.5401 15.89960744  2341
STARLINK-35893          
1 66565U 25268J   25332.58335648 -.01394876  00000+0 -50807-2 0  9999
2 66565  42.9970 205.9638 0001787 266.3952 193.4364 15.90157355  2395
STARLINK-35871          
1 66566U 25268K   25332.58335648 -.01422995  00000+0 -51804-2 0  9992
2 66566  42.9971 205.9585 0001767 266.7289 195.2284 15.90224967  2398
STARLINK-35825          
1 66567U 25268L   25332.58335648 -.01440299  00000+0 -52374-2 0  9993
2 66567  42.9973 205.9536 0001760 265.7423 198.1777 15.90282270  2399
STARLINK-35803          
1 66568U 25268M   25332.58335648 -.01450454  00000+0 -52662-2 0  9998
2 66568  42.9972 205.9484 0001707 271.2584 194.7369 15.90333500  2394
STARLINK-35835          
1 66569U 25268N   25332.58335648 -.01460394  00000+0 -52932-2 0  9993
2 66569  42.9972 205.9439 0001768 267.3109 200.4548 15.90385864  2395
STARLINK-35834          
1 66570U 25268P   25332.58335648 -.01473352  00000+0 -53319-2 0  9993
2 66570  42.9974 205.9388 0001928 268.6016 201.2382 15.90440250  2397
STARLINK-35836          
1 66571U 25268Q   25332.58335648 -.01486792  00000+0 -53744-2 0  9998
2 66571  42.9973 205.9335 0001803 266.2020 205.7188 15.90491652  2395
STARLINK-35870          
1 66572U 25268R   25332.58335648 -.01492042  00000+0 -53829-2 0  9998
2 66572  42.9976 205.9284 0001835 266.3381 207.7204 15.90539459  2397
STARLINK-35650          
1 66573U 25268S   25332.58335648 -.01491584  00000+0 -53683-2 0  9997
2 66573  42.9973 205.9233 0001796 265.2961 210.7040 15.90585199  2391
STARLINK-35812          
1 66574U 25268T   25332.58335648 -.01498845  00000+0 -53851-2 0  9992
2 66574  42.9975 205.9190 0001758 266.4573 211.2051 15.90634269  2397
STARLINK-35810          
1 66575U 25268U   25332.58335648 -.01507310  00000+0 -54058-2 0  9991
2 66575  42.9975 205.9139 0001753 264.4757 215.2567 15.90686178  2390
STARLINK-35814          
1 66576U 25268V   25332.58335648 -.01524691  00000+0 -54621-2 0  9999
2 66576  42.9975 205.9087 0001646 268.6677 213.0707 15.90745078  2398
STARLINK-35815          
1 66577U 25268W   25332.58335648 -.01521713  00000+0 -54377-2 0  9990
2 66577  42.9975 205.9036 0001706 266.8449 216.9635 15.90786368  2396
STARLINK-35743          
1 66578U 25268X   25332.58335648 -.01532185  00000+0 -54656-2 0  9996
2 66578  42.9975 205.8994 0001643 264.7593 220.7071 15.90842367  2395
STARLINK-35868          
1 66579U 25268Y   25332.58335648 -.01539784  00000+0 -54827-2 0  9999
2 66579  42.9975 205.8938 0001726 264.4149 223.2319 15.90891822  2393
STARLINK-35872          
1 66580U 25268Z   25332.58335648 -.01542276  00000+0 -54790-2 0  9990
2 66580  42.9975 205.8898 0001730 267.4142 221.8336 15.90940825  2392
STARLINK-35744          
1 66581U 25268AA  25332.58335648 -.01539767  00000+0 -54559-2 0  9995
2 66581  42.9976 205.8855 0001697 265.5741 225.2692 15.90985833  2349
STARLINK-35746          
1 66582U 25268AB  25332.58335648 -.01551935  00000+0 -54901-2 0  9998
2 66582  42.9974 205.8800 0001718 266.6392 226.3748 15.91041994  2397
STARLINK-35941          
1 66583U 25268AC  25332.58335648 -.01598943  00000+0 -55261-2 0  9999
2 66583  42.9972 205.8749 0001642 262.0133 232.9622 15.91097524  2391
STARLINK-35939          
1 66584U 25268AD  25332.58335648 -.01807174  88711-3 -55211-2 0  9993
2 66584  42.9977 205.8712 0001683 265.9080 230.7382 15.91148007  2397
STARLINK-35963          
1 66585U 25268AE  25332.58335648 -.01801966  88277-3 -54920-2 0  9990
2 66585  42.9974 205.8660 0001776 264.3504 234.2124 15.91193388  2399
TJS-21                  
1 66586U 25269A   25326.02704417  .00003197  00000+0  53570-3 0  9990
2 66586  51.0366 174.7096 7517987 225.0489  41.6572  2.00992210    24
CZ-3B R/B               
1 66587U 25269B   25327.51390516  .00010320 -91384-6  49597-3 0  9990
2 66587  51.3768 174.0599 7525341 225.2938  41.2116  2.01516013    67
SHENZHOU-22             
1 66645U 25272A   25332.61902897  .00013824  00000+0  18037-3 0  9991
2 66645  41.4665 102.3779 0010740 288.2195  71.7474 15.58366267261683
CZ-2F R/B               
1 66646U 25272B   25330.47076975  .00449059  75676-5  29319-3 0  9998
2 66646  41.4431 114.9009 0121079 133.7676 227.3272 16.01945612   217
COSMOS 2597 (RODNIK-S *)
1 66647U 25273A   25332.69833708  .00000004  00000+0 -42953-4 0  9998
2 66647  82.4977 295.1698 0008277 321.8469  38.2024 12.41951129   391
COSMOS 2598 (RODNIK-S *)
1 66648U 25273B   25332.69759280 -.00000023  00000+0 -23852-3 0  9999
2 66648  82.5019 295.1762 0008355 310.6182  49.4170 12.42253374   391
COSMOS 2599 (RODNIK-S *)
1 66649U 25273C   25332.69902516 -.00000037  00000+0 -34628-3 0  9990
2 66649  82.5018 295.1773 0008515 331.9445  28.1174 12.41671939   397
SOYUZ-MS 28             
1 66664U 25275A   25332.54438814  .00008991  00000+0  17015-3 0  9994
2 66664  51.6312 212.7497 0003745 179.2752 180.8242 15.49168962   244
